{"type": "FeatureCollection", "features": [ {"type": "Feature", "properties": {"norad_id": 31226, "name": "FENGYUN 1C DEB", "group": "fengyun-1c-debris", "lat": -66.6229606080208, "lon": 5.038962558773192, "alt_km": 811.4765517979449, "timestamp": "2025-12-11T07:02:24.011569+00:00", "meta": {"OBJECT_NAME": "FENGYUN 1C DEB", "OBJECT_ID": "1999-025BLG", "EPOCH": "2025-12-06T17:57:16.149312", "MEAN_MOTION": 14.2667576, "ECCENTRICITY": 0.01264653, "INCLINATION": 98.3501, "RA_OF_ASC_NODE": 340.838, "ARG_OF_PERICENTER": 213.6965, "MEAN_ANOMALY": 145.613, "EPHEMERIS_TYPE": 0, "CLASSIFICATION_TYPE": "U", "NORAD_CAT_ID": 31226, "ELEMENT_SET_NO": 999, "REV_AT_EPOCH": 61968, "BSTAR": 0.00066349543, "MEAN_MOTION_DOT": 1.704e-05, "MEAN_MOTION_DDOT": 0}, "tle": {"line1": "1 31226U 99025BLG 25340.74810358  .00001704  00000+0  66350-3 0  9993", "line2": "2 31226  98.3501 340.8380 0126465 213.6965 145.6130 14.26675760619688"}}, "geometry": {"type": "Point", "coordinates": [5.038962558773192, -66.6229606080208]}}, {"type": "Feature", "properties": {"norad_id": 31228, "name": "FENGYUN 1C DEB", "group": "fengyun-1c-debris", "lat": -49.50411228424983, "lon": 66.53190923732882, "alt_km": 818.8245976831349, "timestamp": "2025-12-11T07:02:24.011580+00:00", "meta": {"OBJECT_NAME": "FENGYUN 1C DEB", "OBJECT_ID": "1999-025BLJ", "EPOCH": "2025-12-10T12:25:31.694880", "MEAN_MOTION": 14.36908803, "ECCENTRICITY": 0.00792467, "INCLINATION": 98.8685, "RA_OF_ASC_NODE": 256.268, "ARG_OF_PERICENTER": 92.4416, "MEAN_ANOMALY": 87.3886, "EPHEMERIS_TYPE": 0, "CLASSIFICATION_TYPE": "U", "NORAD_CAT_ID": 31228, "ELEMENT_SET_NO": 999, "REV_AT_EPOCH": 97537, "BSTAR": 0.00078673074, "MEAN_MOTION_DOT": 2.367e-05, "MEAN_MOTION_DDOT": 0}, "tle": {"line1": "1 31228U 99025BLJ 25344.51772795  .00002367  00000+0  78673-3 0  9993", "line2": "2 31228  98.8685 256.2680 0079246  92.4416  87.3886 14.36908803975378"}}, "geometry": {"type": "Point", "coordinates": [66.53190923732882, -49.50411228424983]}}, {"type": "Feature", "properties": {"norad_id": 31229, "name": "FENGYUN 1C DEB", "group": "fengyun-1c-debris", "lat": 72.62415686545714, "lon": -89.47800698108185, "alt_km": 848.8106335920329, "timestamp": "2025-12-11T07:02:24.011590+00:00", "meta": {"OBJECT_NAME": "FENGYUN 1C DEB", "OBJECT_ID": "1999-025BLK", "EPOCH": "2025-12-10T15:20:45.373056", "MEAN_MOTION": 14.21797924, "ECCENTRICITY": 0.0052864, "INCLINATION": 98.8673, "RA_OF_ASC_NODE": 59.9386, "ARG_OF_PERICENTER": 302.8603, "MEAN_ANOMALY": 56.7492, "EPHEMERIS_TYPE": 0, "CLASSIFICATION_TYPE": "U", "NORAD_CAT_ID": 31229, "ELEMENT_SET_NO": 999, "REV_AT_EPOCH": 96054, "BSTAR": 0.0021293, "MEAN_MOTION_DOT": 4.711e-05, "MEAN_MOTION_DDOT": 0}, "tle": {"line1": "1 31229U 99025BLK 25344.63941404  .00004711  00000+0  21293-2 0  9992", "line2": "2 31229  98.8673  59.9386 0052864 302.8603  56.7492 14.21797924960540"}}, "geometry": {"type": "Point", "coordinates": [-89.47800698108185, 72.62415686545714]}}, {"type": "Feature", "properties": {"norad_id": 31231, "name": "FENGYUN 1C DEB", "group": "fengyun-1c-debris", "lat": -21.626174496715482, "lon": -39.25032780634887, "alt_km": 648.9379229078113, "timestamp": "2025-12-11T07:02:24.011600+00:00", "meta": {"OBJECT_NAME": "FENGYUN 1C DEB", "OBJECT_ID": "1999-025BLM", "EPOCH": "2025-12-10T17:07:20.657856", "MEAN_MOTION": 14.75448161, "ECCENTRICITY": 0.01463394, "INCLINATION": 98.8622, "RA_OF_ASC_NODE": 143.661, "ARG_OF_PERICENTER": 112.7421, "MEAN_ANOMALY": 248.9327, "EPHEMERIS_TYPE": 0, "CLASSIFICATION_TYPE": "U", "NORAD_CAT_ID": 31231, "ELEMENT_SET_NO": 999, "REV_AT_EPOCH": 62991, "BSTAR": 0.0049834558, "MEAN_MOTION_DOT": 0.00040479, "MEAN_MOTION_DDOT": 0}, "tle": {"line1": "1 31231U 99025BLM 25344.71343354  .00040479  00000+0  49835-2 0  9997", "line2": "2 31231  98.8622 143.6610 0146339 112.7421 248.9327 14.75448161629915"}}, "geometry": {"type": "Point", "coordinates": [-39.25032780634887, -21.626174496715482]}}, {"type": "Feature", "properties": {"norad_id": 31234, "name": "FENGYUN 1C DEB", "group": "fengyun-1c-debris", "lat": 38.306310941103995, "lon": 166.35135344834367, "alt_km": 862.8820221773149, "timestamp": "2025-12-11T07:02:24.011610+00:00", "meta": {"OBJECT_NAME": "FENGYUN 1C DEB", "OBJECT_ID": "1999-025BLQ", "EPOCH": "2025-12-08T16:58:03.836640", "MEAN_MOTION": 14.08010887, "ECCENTRICITY": 0.00729408, "INCLINATION": 98.7836, "RA_OF_ASC_NODE": 336.8196, "ARG_OF_PERICENTER": 238.3597, "MEAN_ANOMALY": 121.0443, "EPHEMERIS_TYPE": 0, "CLASSIFICATION_TYPE": "U", "NORAD_CAT_ID": 31234, "ELEMENT_SET_NO": 999, "REV_AT_EPOCH": 72663, "BSTAR": 0.00057434574, "MEAN_MOTION_DOT": 9.57e-06, "MEAN_MOTION_DDOT": 0}, "tle": {"line1": "1 31234U 99025BLQ 25342.70698885  .00000957  00000+0  57435-3 0  9992", "line2": "2 31234  98.7836 336.8196 0072940 238.3597 121.0443 14.08010887726637"}}, "geometry": {"type": "Point", "coordinates": [166.35135344834367, 38.306310941103995]}}, {"type": "Feature", "properties": {"norad_id": 31235, "name": "FENGYUN 1C DEB", "group": "fengyun-1c-debris", "lat": 70.18332286629692, "lon": 109.20422055984032, "alt_km": 731.6319484471014, "timestamp": "2025-12-11T07:02:24.011620+00:00", "meta": {"OBJECT_NAME": "FENGYUN 1C DEB", "OBJECT_ID": "1999-025BLR", "EPOCH": "2025-12-10T15:28:40.631808", "MEAN_MOTION": 14.18570013, "ECCENTRICITY": 0.0179703, "INCLINATION": 98.4683, "RA_OF_ASC_NODE": 133.0053, "ARG_OF_PERICENTER": 28.2591, "MEAN_ANOMALY": 332.8195, "EPHEMERIS_TYPE": 0, "CLASSIFICATION_TYPE": "U", "NORAD_CAT_ID": 31235, "ELEMENT_SET_NO": 999, "REV_AT_EPOCH": 63137, "BSTAR": 0.0039892, "MEAN_MOTION_DOT": 9.663e-05, "MEAN_MOTION_DDOT": 0}, "tle": {"line1": "1 31235U 99025BLR 25344.64491472  .00009663  00000+0  39892-2 0  9990", "line2": "2 31235  98.4683 133.0053 0179703  28.2591 332.8195 14.18570013631374"}}, "geometry": {"type": "Point", "coordinates": [109.20422055984032, 70.18332286629692]}}, {"type": "Feature", "properties": {"norad_id": 31236, "name": "FENGYUN 1C DEB", "group": "fengyun-1c-debris", "lat": 62.3116004497004, "lon": 137.2886235923802, "alt_km": 836.69770890976, "timestamp": "2025-12-11T07:02:24.011630+00:00", "meta": {"OBJECT_NAME": "FENGYUN 1C DEB", "OBJECT_ID": "1999-025BLS", "EPOCH": "2025-12-10T20:06:45.218304", "MEAN_MOTION": 13.85785384, "ECCENTRICITY": 0.03145381, "INCLINATION": 98.5446, "RA_OF_ASC_NODE": 300.2242, "ARG_OF_PERICENTER": 51.899, "MEAN_ANOMALY": 311.009, "EPHEMERIS_TYPE": 0, "CLASSIFICATION_TYPE": "U", "NORAD_CAT_ID": 31236, "ELEMENT_SET_NO": 999, "REV_AT_EPOCH": 60998, "BSTAR": 0.0081316235, "MEAN_MOTION_DOT": 0.00013718, "MEAN_MOTION_DDOT": 0}, "tle": {"line1": "1 31236U 99025BLS 25344.83802336  .00013718  00000+0  81316-2 0  9991", "line2": "2 31236  98.5446 300.2242 0314538  51.8990 311.0090 13.85785384609980"}}, "geometry": {"type": "Point", "coordinates": [137.2886235923802, 62.3116004497004]}}, {"type": "Feature", "properties": {"norad_id": 31237, "name": "FENGYUN 1C DEB", "group": "fengyun-1c-debris", "lat": 14.844075386666518, "lon": 166.45318542036551, "alt_km": 851.1243971386712, "timestamp": "2025-12-11T07:02:24.011640+00:00", "meta": {"OBJECT_NAME": "FENGYUN 1C DEB", "OBJECT_ID": "1999-025BLT", "EPOCH": "2025-12-10T06:47:06.808416", "MEAN_MOTION": 14.31376056, "ECCENTRICITY": 0.0089141, "INCLINATION": 98.4539, "RA_OF_ASC_NODE": 343.2104, "ARG_OF_PERICENTER": 356.2526, "MEAN_ANOMALY": 3.7979, "EPHEMERIS_TYPE": 0, "CLASSIFICATION_TYPE": "U", "NORAD_CAT_ID": 31237, "ELEMENT_SET_NO": 999, "REV_AT_EPOCH": 97231, "BSTAR": 0.00092747, "MEAN_MOTION_DOT": 2.525e-05, "MEAN_MOTION_DDOT": 0}, "tle": {"line1": "1 31237U 99025BLT 25344.28271769  .00002525  00000+0  92747-3 0  9996", "line2": "2 31237  98.4539 343.2104 0089141 356.2526   3.7979 14.31376056972318"}}, "geometry": {"type": "Point", "coordinates": [166.45318542036551, 14.844075386666518]}}, {"type": "Feature", "properties": {"norad_id": 31239, "name": "FENGYUN 1C DEB", "group": "fengyun-1c-debris", "lat": 68.7568988281875, "lon": -176.36424151201643, "alt_km": 854.7020335580419, "timestamp": "2025-12-11T07:02:24.011650+00:00", "meta": {"OBJECT_NAME": "FENGYUN 1C DEB", "OBJECT_ID": "1999-025BLV", "EPOCH": "2025-12-10T22:09:06.839712", "MEAN_MOTION": 14.09857773, "ECCENTRICITY": 0.00491806, "INCLINATION": 98.7579, "RA_OF_ASC_NODE": 339.913, "ARG_OF_PERICENTER": 203.2305, "MEAN_ANOMALY": 188.128, "EPHEMERIS_TYPE": 0, "CLASSIFICATION_TYPE": "U", "NORAD_CAT_ID": 31239, "ELEMENT_SET_NO": 999, "REV_AT_EPOCH": 95986, "BSTAR": 0.00057560657, "MEAN_MOTION_DOT": 9.81e-06, "MEAN_MOTION_DDOT": 0}, "tle": {"line1": "1 31239U 99025BLV 25344.92299583  .00000981  00000+0  57561-3 0  9992", "line2": "2 31239  98.7579 339.9130 0049180 203.2305 188.1280 14.09857773959866"}}, "geometry": {"type": "Point", "coordinates": [-176.36424151201643, 68.7568988281875]}}, {"type": "Feature", "properties": {"norad_id": 31241, "name": "FENGYUN 1C DEB", "group": "fengyun-1c-debris", "lat": -26.61662792917622, "lon": 136.67995962139736, "alt_km": 808.8118624991766, "timestamp": "2025-12-11T07:02:24.011676+00:00", "meta": {"OBJECT_NAME": "FENGYUN 1C DEB", "OBJECT_ID": "1999-025BLX", "EPOCH": "2025-12-10T16:08:40.174944", "MEAN_MOTION": 14.38684332, "ECCENTRICITY": 0.00667871, "INCLINATION": 99.2343, "RA_OF_ASC_NODE": 131.3364, "ARG_OF_PERICENTER": 187.0213, "MEAN_ANOMALY": 173.0043, "EPHEMERIS_TYPE": 0, "CLASSIFICATION_TYPE": "U", "NORAD_CAT_ID": 31241, "ELEMENT_SET_NO": 999, "REV_AT_EPOCH": 97661, "BSTAR": 0.0011234785, "MEAN_MOTION_DOT": 3.487e-05, "MEAN_MOTION_DDOT": 0}, "tle": {"line1": "1 31241U 99025BLX 25344.67268721  .00003487  00000+0  11235-2 0  9998", "line2": "2 31241  99.2343 131.3364 0066787 187.0213 173.0043 14.38684332976619"}}, "geometry": {"type": "Point", "coordinates": [136.67995962139736, -26.61662792917622]}}]}